start=new Date('2022-06-21T00:00:00.000Z').valueOf();
sats=[{"EPOCH":"2022-06-20T17:31:35.710752","MEAN_ELEMENT_THEORY":"SGP4","MEAN_MOTION_DDOT":"0.0000000000000","NORAD_CAT_ID":"45773","RA_OF_ASC_NODE":"172.7448","LAUNCH_DATE":"2020-06-13","FILE":"3498404","MEAN_MOTION":"15.06399601","OBJECT_TYPE":"PAYLOAD","EPHEMERIS_TYPE":"0","PERIAPSIS":"546.015","CENTER_NAME":"EARTH","TLE_LINE2":"2 45773  53.0546 172.7448 0001733  63.8187 296.2980 15.06399601112089","SITE":"AFETR","APOAPSIS":"548.415","SEMIMAJOR_AXIS":"6925.350","GP_ID":"206510676","OBJECT_ID":"2020-038AV","MEAN_MOTION_DOT":"0.00001171","OBJECT_NAME":"STARLINK-1482","REV_AT_EPOCH":"11208","ECCENTRICITY":"0.00017330","MEAN_ANOMALY":"296.2980","CLASSIFICATION_TYPE":"U","DECAY_DATE":null,"TIME_SYSTEM":"UTC","ARG_OF_PERICENTER":"63.8187","PERIOD":"95.592","ELEMENT_SET_NO":"999","INCLINATION":"53.0546","RCS_SIZE":"LARGE","TLE_LINE1":"1 45773U 20038AV  22171.73027443  .00001171  00000-0  97534-4 0  9994","REF_FRAME":"TEME","BSTAR":"0.00009753400000","COUNTRY_CODE":"US"},{"ECCENTRICITY":"0.00018860","MEAN_ANOMALY":"302.7014","CLASSIFICATION_TYPE":"U","REV_AT_EPOCH":"11207","MEAN_MOTION_DOT":"-0.00000312","OBJECT_NAME":"STARLINK-1485","BSTAR":"-0.00000204850000","COUNTRY_CODE":"US","REF_FRAME":"TEME","TLE_LINE1":"1 45774U 20038AW  22171.70079429 -.00000312  00000-0 -20485-5 0  9993","INCLINATION":"53.0550","RCS_SIZE":"LARGE","PERIOD":"95.593","ELEMENT_SET_NO":"999","TIME_SYSTEM":"UTC","ARG_OF_PERICENTER":"57.4157","DECAY_DATE":null,"LAUNCH_DATE":"2020-06-13","NORAD_CAT_ID":"45774","RA_OF_ASC_NODE":"172.8777","MEAN_MOTION_DDOT":"0.0000000000000","EPOCH":"2022-06-20T16:49:08.626656","MEAN_ELEMENT_THEORY":"SGP4","GP_ID":"206510925","SEMIMAJOR_AXIS":"6925.379","OBJECT_ID":"2020-038AW","APOAPSIS":"548.550","PERIAPSIS":"545.938","TLE_LINE2":"2 45774  53.0550 172.8777 0001886  57.4157 302.7014 15.06389974112078","CENTER_NAME":"EARTH","SITE":"AFETR","OBJECT_TYPE":"PAYLOAD","EPHEMERIS_TYPE":"0","MEAN_MOTION":"15.06389974","FILE":"3498404"},{"TLE_LINE2":"2 45775  53.0547 172.8591 0001773  76.6994 283.4192 15.06393423112083","CENTER_NAME":"EARTH","SITE":"AFETR","PERIAPSIS":"546.006","APOAPSIS":"548.462","OBJECT_ID":"2020-038AX","GP_ID":"206511169","SEMIMAJOR_AXIS":"6925.369","FILE":"3498404","MEAN_MOTION":"15.06393423","EPHEMERIS_TYPE":"0","OBJECT_TYPE":"PAYLOAD","MEAN_MOTION_DDOT":"0.0000000000000","NORAD_CAT_ID":"45775","RA_OF_ASC_NODE":"172.8591","LAUNCH_DATE":"2020-06-13","EPOCH":"2022-06-20T16:54:26.808480","MEAN_ELEMENT_THEORY":"SGP4","TLE_LINE1":"1 45775U 20038AX  22171.70447695 -.00000705  00000-0 -28450-4 0  9993","REF_FRAME":"TEME","COUNTRY_CODE":"US","BSTAR":"-0.00002845000000","DECAY_DATE":null,"ARG_OF_PERICENTER":"76.6994","TIME_SYSTEM":"UTC","ELEMENT_SET_NO":"999","PERIOD":"95.593","RCS_SIZE":"LARGE","INCLINATION":"53.0547","CLASSIFICATION_TYPE":"U","MEAN_ANOMALY":"283.4192","ECCENTRICITY":"0.00017730","OBJECT_NAME":"STARLINK-1488","MEAN_MOTION_DOT":"-0.00000705","REV_AT_EPOCH":"11208"},{"EPOCH":"2022-06-20T17:05:03.814944","MEAN_ELEMENT_THEORY":"SGP4","LAUNCH_DATE":"2020-06-13","MEAN_MOTION_DDOT":"0.0000000000000","NORAD_CAT_ID":"45776","RA_OF_ASC_NODE":"172.8175","EPHEMERIS_TYPE":"0","OBJECT_TYPE":"PAYLOAD","MEAN_MOTION":"15.06388331","FILE":"3498404","APOAPSIS":"548.467","OBJECT_ID":"2020-038AY","SEMIMAJOR_AXIS":"6925.384","GP_ID":"206511412","TLE_LINE2":"2 45776  53.0550 172.8175 0001758  57.4482 302.6676 15.06388331112081","CENTER_NAME":"EARTH","SITE":"AFETR","PERIAPSIS":"546.032","OBJECT_NAME":"STARLINK-1489","MEAN_MOTION_DOT":"-0.00000503","REV_AT_EPOCH":"11208","CLASSIFICATION_TYPE":"U","MEAN_ANOMALY":"302.6676","ECCENTRICITY":"0.00017580","ELEMENT_SET_NO":"999","PERIOD":"95.593","RCS_SIZE":"LARGE","INCLINATION":"53.0550","DECAY_DATE":null,"ARG_OF_PERICENTER":"57.4482","TIME_SYSTEM":"UTC","REF_FRAME":"TEME","COUNTRY_CODE":"US","BSTAR":"-0.00001485700000","TLE_LINE1":"1 45776U 20038AY  22171.71184971 -.00000503  00000-0 -14857-4 0  9992"},{"ECCENTRICITY":"0.00019150","MEAN_ANOMALY":"304.5982","CLASSIFICATION_TYPE":"U","REV_AT_EPOCH":"11208","MEAN_MOTION_DOT":"-0.00000218","OBJECT_NAME":"STARLINK-1490","TLE_LINE1":"1 45777U 20038AZ  22171.70816237 -.00000218  00000-0  42532-5 0  9993","BSTAR":"0.00000425320000","COUNTRY_CODE":"US","REF_FRAME":"TEME","TIME_SYSTEM":"UTC","ARG_OF_PERICENTER":"55.5188","DECAY_DATE":null,"INCLINATION":"53.0549","RCS_SIZE":"LARGE","PERIOD":"95.593","ELEMENT_SET_NO":"999","RA_OF_ASC_NODE":"172.8498","NORAD_CAT_ID":"45777","MEAN_MOTION_DDOT":"0.0000000000000","LAUNCH_DATE":"2020-06-13","MEAN_ELEMENT_THEORY":"SGP4","EPOCH":"2022-06-20T16:59:45.228768","PERIAPSIS":"545.917","TLE_LINE2":"2 45777  53.0549 172.8498 0001915  55.5188 304.5982 15.06390256112085","SITE":"AFETR","CENTER_NAME":"EARTH","SEMIMAJOR_AXIS":"6925.378","GP_ID":"206510176","OBJECT_ID":"2020-038AZ","APOAPSIS":"548.570","FILE":"3498404","MEAN_MOTION":"15.06390256","OBJECT_TYPE":"PAYLOAD","EPHEMERIS_TYPE":"0"},{"ECCENTRICITY":"0.00013090","MEAN_ANOMALY":"288.3081","CLASSIFICATION_TYPE":"U","REV_AT_EPOCH":"11203","MEAN_MOTION_DOT":"-0.00000465","OBJECT_NAME":"STARLINK-1491","BSTAR":"-0.00001235300000","COUNTRY_CODE":"US","REF_FRAME":"TEME","TLE_LINE1":"1 45778U 20038BA  22171.49068696 -.00000465  00000-0 -12353-4 0  9990","INCLINATION":"53.0525","RCS_SIZE":"LARGE","PERIOD":"95.593","ELEMENT_SET_NO":"999","TIME_SYSTEM":"UTC","ARG_OF_PERICENTER":"71.8051","DECAY_DATE":null,"LAUNCH_DATE":"2020-06-13","NORAD_CAT_ID":"45778","RA_OF_ASC_NODE":"173.8059","MEAN_MOTION_DDOT":"0.0000000000000","MEAN_ELEMENT_THEORY":"SGP4","EPOCH":"2022-06-20T11:46:35.353344","SEMIMAJOR_AXIS":"6925.366","GP_ID":"206478605","OBJECT_ID":"2020-038BA","APOAPSIS":"548.138","PERIAPSIS":"546.325","TLE_LINE2":"2 45778  53.0525 173.8059 0001309  71.8051 288.3081 15.06394264112038","SITE":"AFETR","CENTER_NAME":"EARTH","OBJECT_TYPE":"PAYLOAD","EPHEMERIS_TYPE":"0","MEAN_MOTION":"15.06394264","FILE":"3498071"},{"DECAY_DATE":null,"TIME_SYSTEM":"UTC","ARG_OF_PERICENTER":"47.5759","PERIOD":"95.592","ELEMENT_SET_NO":"999","INCLINATION":"53.0556","RCS_SIZE":"LARGE","TLE_LINE1":"1 45779U 20038BB  22171.28796257 -.00000003  00000-0  18704-4 0  9992","REF_FRAME":"TEME","BSTAR":"0.00001870400000","COUNTRY_CODE":"US","MEAN_MOTION_DOT":"-0.00000003","OBJECT_NAME":"STARLINK-1492","REV_AT_EPOCH":"11200","MEAN_ANOMALY":"312.5398","ECCENTRICITY":"0.00019820","CLASSIFICATION_TYPE":"U","FILE":"3498071","MEAN_MOTION":"15.06397490","OBJECT_TYPE":"PAYLOAD","EPHEMERIS_TYPE":"0","PERIAPSIS":"545.849","SITE":"AFETR","TLE_LINE2":"2 45779  53.0556 174.7167 0001982  47.5759 312.5398 15.06397490112007","CENTER_NAME":"EARTH","APOAPSIS":"548.594","GP_ID":"206478853","SEMIMAJOR_AXIS":"6925.356","OBJECT_ID":"2020-038BB","EPOCH":"2022-06-20T06:54:39.966048","MEAN_ELEMENT_THEORY":"SGP4","MEAN_MOTION_DDOT":"0.0000000000000","NORAD_CAT_ID":"45779","RA_OF_ASC_NODE":"174.7167","LAUNCH_DATE":"2020-06-13"},{"REV_AT_EPOCH":"11206","MEAN_MOTION_DOT":"-0.00000733","OBJECT_NAME":"STARLINK-1496","MEAN_ANOMALY":"303.7027","ECCENTRICITY":"0.00018880","CLASSIFICATION_TYPE":"U","TIME_SYSTEM":"UTC","ARG_OF_PERICENTER":"56.4142","DECAY_DATE":null,"INCLINATION":"53.0520","RCS_SIZE":"LARGE","PERIOD":"95.592","ELEMENT_SET_NO":"999","TLE_LINE1":"1 45780U 20038BC  22171.69710252 -.00000733  00000-0 -30284-4 0  9998","BSTAR":"-0.00003028400000","COUNTRY_CODE":"US","REF_FRAME":"TEME","EPOCH":"2022-06-20T16:43:49.657728","MEAN_ELEMENT_THEORY":"SGP4","NORAD_CAT_ID":"45780","RA_OF_ASC_NODE":"172.8896","MEAN_MOTION_DDOT":"0.0000000000000","LAUNCH_DATE":"2020-06-13","FILE":"3498404","MEAN_MOTION":"15.06394591","OBJECT_TYPE":"PAYLOAD","EPHEMERIS_TYPE":"0","PERIAPSIS":"545.923","CENTER_NAME":"EARTH","TLE_LINE2":"2 45780  53.0520 172.8896 0001888  56.4142 303.7027 15.06394591112064","SITE":"AFETR","SEMIMAJOR_AXIS":"6925.365","GP_ID":"206511913","OBJECT_ID":"2020-038BC","APOAPSIS":"548.538"},{"OBJECT_ID":"2020-038BD","SEMIMAJOR_AXIS":"6925.373","GP_ID":"206486563","APOAPSIS":"548.443","SITE":"AFETR","TLE_LINE2":"2 45781  53.0543 174.2643 0001739  61.8979 298.2186 15.06391926112950","CENTER_NAME":"EARTH","PERIAPSIS":"546.034","EPHEMERIS_TYPE":"0","OBJECT_TYPE":"PAYLOAD","FILE":"3498187","MEAN_MOTION":"15.06391926","LAUNCH_DATE":"2020-06-13","NORAD_CAT_ID":"45781","RA_OF_ASC_NODE":"174.2643","MEAN_MOTION_DDOT":"0.0000000000000","EPOCH":"2022-06-20T09:23:17.259936","MEAN_ELEMENT_THEORY":"SGP4","COUNTRY_CODE":"US","BSTAR":"-0.00002321000000","REF_FRAME":"TEME","TLE_LINE1":"1 45781U 20038BD  22171.39117199 -.00000627  00000-0 -23210-4 0  9990","RCS_SIZE":"LARGE","INCLINATION":"53.0543","ELEMENT_SET_NO":"999","PERIOD":"95.593","ARG_OF_PERICENTER":"61.8979","TIME_SYSTEM":"UTC","DECAY_DATE":null,"CLASSIFICATION_TYPE":"U","ECCENTRICITY":"0.00017390","MEAN_ANOMALY":"298.2186","REV_AT_EPOCH":"11295","OBJECT_NAME":"STARLINK-1497","MEAN_MOTION_DOT":"-0.00000627"},{"APOAPSIS":"548.542","OBJECT_ID":"2020-038BE","GP_ID":"206510926","SEMIMAJOR_AXIS":"6925.361","SITE":"AFETR","TLE_LINE2":"2 45782  53.0544 172.8157 0001900  52.8311 307.2851 15.06395868112089","CENTER_NAME":"EARTH","PERIAPSIS":"545.910","EPHEMERIS_TYPE":"0","OBJECT_TYPE":"PAYLOAD","MEAN_MOTION":"15.06395868","FILE":"3498404","LAUNCH_DATE":"2020-06-13","MEAN_MOTION_DDOT":"0.0000000000000","NORAD_CAT_ID":"45782","RA_OF_ASC_NODE":"172.8157","EPOCH":"2022-06-20T17:10:22.584288","MEAN_ELEMENT_THEORY":"SGP4","REF_FRAME":"TEME","COUNTRY_CODE":"US","BSTAR":"-0.00003320100000","TLE_LINE1":"1 45782U 20038BE  22171.71553917 -.00000776  00000-0 -33201-4 0  9995","ELEMENT_SET_NO":"999","PERIOD":"95.592","RCS_SIZE":"LARGE","INCLINATION":"53.0544","DECAY_DATE":null,"ARG_OF_PERICENTER":"52.8311","TIME_SYSTEM":"UTC","CLASSIFICATION_TYPE":"U","MEAN_ANOMALY":"307.2851","ECCENTRICITY":"0.00019000","OBJECT_NAME":"STARLINK-1498","MEAN_MOTION_DOT":"-0.00000776","REV_AT_EPOCH":"11208"}];
